[{"OBJECT_NAME":"STARLINK-34127","OBJECT_ID":"2025-092G","EPOCH":"2025-09-07T01:39:07.398432","MEAN_MOTION":15.27633319,"ECCENTRICITY":0.00026822,"INCLINATION":43.005,"RA_OF_ASC_NODE":129.4171,"ARG_OF_PERICENTER":275.7925,"MEAN_ANOMALY":84.2621,"EPHEMERIS_TYPE":0,"CLASSIFICATION_TYPE":"U","NORAD_CAT_ID":63810,"ELEMENT_SET_NO":999,"REV_AT_EPOCH":2053,"BSTAR":0.0014364183,"MEAN_MOTION_DOT":0.00039544,"MEAN_MOTION_DDOT":0},{"OBJECT_NAME":"STARLINK-34110","OBJECT_ID":"2025-092H","EPOCH":"2025-09-07T00:41:58.426080","MEAN_MOTION":15.27625717,"ECCENTRICITY":0.00017618,"INCLINATION":43.0002,"RA_OF_ASC_NODE":129.9809,"ARG_OF_PERICENTER":276.2596,"MEAN_ANOMALY":83.8055,"EPHEMERIS_TYPE":0,"CLASSIFICATION_TYPE":"U","NORAD_CAT_ID":63811,"ELEMENT_SET_NO":999,"REV_AT_EPOCH":2057,"BSTAR":0.0021103457,"MEAN_MOTION_DOT":0.00058353,"MEAN_MOTION_DDOT":0},{"OBJECT_NAME":"STARLINK-34101","OBJECT_ID":"2025-092J","EPOCH":"2025-09-07T01:09:33.106176","MEAN_MOTION":15.27569373,"ECCENTRICITY":0.00017193,"INCLINATION":43.0004,"RA_OF_ASC_NODE":129.2574,"ARG_OF_PERICENTER":253.3521,"MEAN_ANOMALY":106.7142,"EPHEMERIS_TYPE":0,"CLASSIFICATION_TYPE":"U","NORAD_CAT_ID":63812,"ELEMENT_SET_NO":999,"REV_AT_EPOCH":2047,"BSTAR":0.0018877218,"MEAN_MOTION_DOT":0.00052035,"MEAN_MOTION_DDOT":0},{"OBJECT_NAME":"STARLINK-34065","OBJECT_ID":"2025-092K","EPOCH":"2025-09-06T22:07:27.117696","MEAN_MOTION":15.27617469,"ECCENTRICITY":5.172e-5,"INCLINATION":43.0021,"RA_OF_ASC_NODE":126.5246,"ARG_OF_PERICENTER":291.1592,"MEAN_ANOMALY":68.9204,"EPHEMERIS_TYPE":0,"CLASSIFICATION_TYPE":"U","NORAD_CAT_ID":63813,"ELEMENT_SET_NO":999,"REV_AT_EPOCH":2049,"BSTAR":0.0020046967,"MEAN_MOTION_DOT":0.00055381,"MEAN_MOTION_DDOT":0},{"OBJECT_NAME":"STARLINK-34057","OBJECT_ID":"2025-092L","EPOCH":"2025-09-07T01:20:36.842208","MEAN_MOTION":15.2762306,"ECCENTRICITY":0.0002072,"INCLINATION":43.0036,"RA_OF_ASC_NODE":129.3181,"ARG_OF_PERICENTER":258.66,"MEAN_ANOMALY":101.4019,"EPHEMERIS_TYPE":0,"CLASSIFICATION_TYPE":"U","NORAD_CAT_ID":63814,"ELEMENT_SET_NO":999,"REV_AT_EPOCH":2053,"BSTAR":0.0022223174,"MEAN_MOTION_DOT":0.00061485,"MEAN_MOTION_DDOT":0},{"OBJECT_NAME":"STARLINK-34060","OBJECT_ID":"2025-092M","EPOCH":"2025-09-07T01:22:27.861888","MEAN_MOTION":15.27613715,"ECCENTRICITY":0.00017166,"INCLINATION":43.0043,"RA_OF_ASC_NODE":129.3295,"ARG_OF_PERICENTER":261.5139,"MEAN_ANOMALY":98.5519,"EPHEMERIS_TYPE":0,"CLASSIFICATION_TYPE":"U","NORAD_CAT_ID":63815,"ELEMENT_SET_NO":999,"REV_AT_EPOCH":2047,"BSTAR":0.0011741218,"MEAN_MOTION_DOT":0.00032222,"MEAN_MOTION_DDOT":0},{"OBJECT_NAME":"STARLINK-34048","OBJECT_ID":"2025-092N","EPOCH":"2025-09-07T00:53:04.679808","MEAN_MOTION":15.276209,"ECCENTRICITY":0.00017648,"INCLINATION":43.0013,"RA_OF_ASC_NODE":130.0387,"ARG_OF_PERICENTER":251.6199,"MEAN_ANOMALY":108.4461,"EPHEMERIS_TYPE":0,"CLASSIFICATION_TYPE":"U","NORAD_CAT_ID":63816,"ELEMENT_SET_NO":999,"REV_AT_EPOCH":2057,"BSTAR":0.0025500902,"MEAN_MOTION_DOT":0.00070675,"MEAN_MOTION_DDOT":0},{"OBJECT_NAME":"STARLINK-33959","OBJECT_ID":"2025-092P","EPOCH":"2025-09-06T09:24:15.397632","MEAN_MOTION":15.27618853,"ECCENTRICITY":0.00019522,"INCLINATION":43.0023,"RA_OF_ASC_NODE":132.9322,"ARG_OF_PERICENTER":285.8298,"MEAN_ANOMALY":74.2338,"EPHEMERIS_TYPE":0,"CLASSIFICATION_TYPE":"U","NORAD_CAT_ID":63817,"ELEMENT_SET_NO":999,"REV_AT_EPOCH":2048,"BSTAR":0.0013828922,"MEAN_MOTION_DOT":0.00038034,"MEAN_MOTION_DDOT":0},{"OBJECT_NAME":"STARLINK-34058","OBJECT_ID":"2025-092Q","EPOCH":"2025-09-06T23:40:54.821568","MEAN_MOTION":15.27612608,"ECCENTRICITY":0.00012732,"INCLINATION":43.0031,"RA_OF_ASC_NODE":129.6581,"ARG_OF_PERICENTER":262.3981,"MEAN_ANOMALY":97.6726,"EPHEMERIS_TYPE":0,"CLASSIFICATION_TYPE":"U","NORAD_CAT_ID":63818,"ELEMENT_SET_NO":999,"REV_AT_EPOCH":2057,"BSTAR":0.0011385157,"MEAN_MOTION_DOT":0.00031231,"MEAN_MOTION_DDOT":0},{"OBJECT_NAME":"STARLINK-34055","OBJECT_ID":"2025-092R","EPOCH":"2025-09-07T00:47:31.225920","MEAN_MOTION":15.27618787,"ECCENTRICITY":0.00016489,"INCLINATION":43.0018,"RA_OF_ASC_NODE":129.9864,"ARG_OF_PERICENTER":286.0782,"MEAN_ANOMALY":73.9888,"EPHEMERIS_TYPE":0,"CLASSIFICATION_TYPE":"U","NORAD_CAT_ID":63819,"ELEMENT_SET_NO":999,"REV_AT_EPOCH":2052,"BSTAR":0.0016147528,"MEAN_MOTION_DOT":0.00044494,"MEAN_MOTION_DDOT":0},{"OBJECT_NAME":"STARLINK-33794","OBJECT_ID":"2025-092S","EPOCH":"2025-09-07T02:12:25.839936","MEAN_MOTION":15.27616767,"ECCENTRICITY":0.0001793,"INCLINATION":43.0002,"RA_OF_ASC_NODE":129.5899,"ARG_OF_PERICENTER":287.1512,"MEAN_ANOMALY":72.9143,"EPHEMERIS_TYPE":0,"CLASSIFICATION_TYPE":"U","NORAD_CAT_ID":63820,"ELEMENT_SET_NO":999,"REV_AT_EPOCH":2053,"BSTAR":0.0020917954,"MEAN_MOTION_DOT":0.00057818,"MEAN_MOTION_DDOT":0},{"OBJECT_NAME":"STARLINK-34047","OBJECT_ID":"2025-092T","EPOCH":"2025-09-07T00:32:43.329408","MEAN_MOTION":15.27624114,"ECCENTRICITY":0.00020977,"INCLINATION":43.0001,"RA_OF_ASC_NODE":129.9285,"ARG_OF_PERICENTER":269.6828,"MEAN_ANOMALY":90.3783,"EPHEMERIS_TYPE":0,"CLASSIFICATION_TYPE":"U","NORAD_CAT_ID":63821,"ELEMENT_SET_NO":999,"REV_AT_EPOCH":2057,"BSTAR":0.0023577643,"MEAN_MOTION_DOT":0.00065284,"MEAN_MOTION_DDOT":0},{"OBJECT_NAME":"STARLINK-34094","OBJECT_ID":"2025-092U","EPOCH":"2025-09-07T00:48:12.832704","MEAN_MOTION":15.27618877,"ECCENTRICITY":0.0001918,"INCLINATION":43.0012,"RA_OF_ASC_NODE":126.5164,"ARG_OF_PERICENTER":283.6515,"MEAN_ANOMALY":76.4123,"EPHEMERIS_TYPE":0,"CLASSIFICATION_TYPE":"U","NORAD_CAT_ID":63822,"ELEMENT_SET_NO":999,"REV_AT_EPOCH":2061,"BSTAR":0.0020467984,"MEAN_MOTION_DOT":0.00056562,"MEAN_MOTION_DDOT":0},{"OBJECT_NAME":"STARLINK-34043","OBJECT_ID":"2025-092V","EPOCH":"2025-09-07T00:51:42.328512","MEAN_MOTION":15.27611457,"ECCENTRICITY":0.00014381,"INCLINATION":43.0017,"RA_OF_ASC_NODE":125.6707,"ARG_OF_PERICENTER":288.1717,"MEAN_ANOMALY":71.8978,"EPHEMERIS_TYPE":0,"CLASSIFICATION_TYPE":"U","NORAD_CAT_ID":63823,"ELEMENT_SET_NO":999,"REV_AT_EPOCH":2057,"BSTAR":0.0020283064,"MEAN_MOTION_DOT":0.00056031,"MEAN_MOTION_DDOT":0},{"OBJECT_NAME":"STARLINK-34025","OBJECT_ID":"2025-092W","EPOCH":"2025-09-07T01:13:13.103040","MEAN_MOTION":15.2760686,"ECCENTRICITY":0.00014485,"INCLINATION":43.0015,"RA_OF_ASC_NODE":129.2797,"ARG_OF_PERICENTER":279.5946,"MEAN_ANOMALY":80.4742,"EPHEMERIS_TYPE":0,"CLASSIFICATION_TYPE":"U","NORAD_CAT_ID":63824,"ELEMENT_SET_NO":999,"REV_AT_EPOCH":2047,"BSTAR":0.002363728,"MEAN_MOTION_DOT":0.00065415,"MEAN_MOTION_DDOT":0},{"OBJECT_NAME":"STARLINK-33874","OBJECT_ID":"2025-092X","EPOCH":"2025-09-07T01:59:28.430880","MEAN_MOTION":15.2764429,"ECCENTRICITY":0.00026828,"INCLINATION":43.0013,"RA_OF_ASC_NODE":129.5182,"ARG_OF_PERICENTER":276.6886,"MEAN_ANOMALY":83.366,"EPHEMERIS_TYPE":0,"CLASSIFICATION_TYPE":"U","NORAD_CAT_ID":63825,"ELEMENT_SET_NO":999,"REV_AT_EPOCH":2058,"BSTAR":0.0020850364,"MEAN_MOTION_DOT":0.0005768,"MEAN_MOTION_DDOT":0},{"OBJECT_NAME":"STARLINK-33781","OBJECT_ID":"2025-092Y","EPOCH":"2025-09-07T00:51:15.442560","MEAN_MOTION":15.27566178,"ECCENTRICITY":0.00018033,"INCLINATION":43.0013,"RA_OF_ASC_NODE":130.0255,"ARG_OF_PERICENTER":291.854,"MEAN_ANOMALY":68.2119,"EPHEMERIS_TYPE":0,"CLASSIFICATION_TYPE":"U","NORAD_CAT_ID":63826,"ELEMENT_SET_NO":999,"REV_AT_EPOCH":2057,"BSTAR":0.0016061085,"MEAN_MOTION_DOT":0.00044181,"MEAN_MOTION_DDOT":0},{"OBJECT_NAME":"STARLINK-33891","OBJECT_ID":"2025-092Z","EPOCH":"2025-09-07T01:00:29.394432","MEAN_MOTION":15.27576594,"ECCENTRICITY":0.00024455,"INCLINATION":43.0003,"RA_OF_ASC_NODE":130.0663,"ARG_OF_PERICENTER":261.3669,"MEAN_ANOMALY":98.6906,"EPHEMERIS_TYPE":0,"CLASSIFICATION_TYPE":"U","NORAD_CAT_ID":63827,"ELEMENT_SET_NO":999,"REV_AT_EPOCH":2046,"BSTAR":0.001102431,"MEAN_MOTION_DOT":0.00030197,"MEAN_MOTION_DDOT":0},{"OBJECT_NAME":"STARLINK-33903","OBJECT_ID":"2025-092AA","EPOCH":"2025-09-06T22:43:45.331680","MEAN_MOTION":15.2763441,"ECCENTRICITY":0.00021618,"INCLINATION":42.9979,"RA_OF_ASC_NODE":130.2109,"ARG_OF_PERICENTER":119.4326,"MEAN_ANOMALY":240.6741,"EPHEMERIS_TYPE":0,"CLASSIFICATION_TYPE":"U","NORAD_CAT_ID":63828,"ELEMENT_SET_NO":999,"REV_AT_EPOCH":2056,"BSTAR":0.0021672097,"MEAN_MOTION_DOT":0.00059962,"MEAN_MOTION_DDOT":0},{"OBJECT_NAME":"STARLINK-33889","OBJECT_ID":"2025-092AB","EPOCH":"2025-09-07T01:31:41.627136","MEAN_MOTION":15.2764698,"ECCENTRICITY":0.00016652,"INCLINATION":43.0026,"RA_OF_ASC_NODE":129.3766,"ARG_OF_PERICENTER":275.2706,"MEAN_ANOMALY":84.7956,"EPHEMERIS_TYPE":0,"CLASSIFICATION_TYPE":"U","NORAD_CAT_ID":63829,"ELEMENT_SET_NO":999,"REV_AT_EPOCH":2047,"BSTAR":0.0021844864,"MEAN_MOTION_DOT":0.00060468,"MEAN_MOTION_DDOT":0},{"OBJECT_NAME":"STARLINK-33984","OBJECT_ID":"2025-092AC","EPOCH":"2025-09-07T01:42:49.324608","MEAN_MOTION":15.27623799,"ECCENTRICITY":0.00020093,"INCLINATION":43.0022,"RA_OF_ASC_NODE":129.4244,"ARG_OF_PERICENTER":266.5647,"MEAN_ANOMALY":93.4975,"EPHEMERIS_TYPE":0,"CLASSIFICATION_TYPE":"U","NORAD_CAT_ID":63830,"ELEMENT_SET_NO":999,"REV_AT_EPOCH":2053,"BSTAR":0.0013362926,"MEAN_MOTION_DOT":0.00036743,"MEAN_MOTION_DDOT":0},{"OBJECT_NAME":"STARLINK-33940","OBJECT_ID":"2025-092AD","EPOCH":"2025-09-07T00:23:28.190400","MEAN_MOTION":15.27633558,"ECCENTRICITY":0.00021433,"INCLINATION":43.0016,"RA_OF_ASC_NODE":129.8809,"ARG_OF_PERICENTER":270.0669,"MEAN_ANOMALY":89.9937,"EPHEMERIS_TYPE":0,"CLASSIFICATION_TYPE":"U","NORAD_CAT_ID":63831,"ELEMENT_SET_NO":999,"REV_AT_EPOCH":2057,"BSTAR":0.0019063246,"MEAN_MOTION_DOT":0.00052659,"MEAN_MOTION_DDOT":0},{"OBJECT_NAME":"STARLINK-33978","OBJECT_ID":"2025-092AE","EPOCH":"2025-09-07T01:35:25.491264","MEAN_MOTION":15.27630364,"ECCENTRICITY":0.00022249,"INCLINATION":43.0024,"RA_OF_ASC_NODE":129.3986,"ARG_OF_PERICENTER":288.86,"MEAN_ANOMALY":71.201,"EPHEMERIS_TYPE":0,"CLASSIFICATION_TYPE":"U","NORAD_CAT_ID":63832,"ELEMENT_SET_NO":999,"REV_AT_EPOCH":2058,"BSTAR":0.0013791305,"MEAN_MOTION_DOT":0.00037944,"MEAN_MOTION_DDOT":0}]
